ONEWEB-0657             
1 55818U 23029Y   25256.26587190 -.00000047  00000+0 -15006-3 0  9998
2 55818  87.9282   0.0566 0002444 113.9354 246.2035 13.19726611122387
ONEWEB-0658             
1 55819U 23029Z   25256.03368472  .00000069  00000+0  14048-3 0  9991
2 55819  87.9293   0.0404 0001378 109.2965 250.8317 13.19725877122367
ONEWEB-0660             
1 55820U 23029AA  25256.21014570 -.00000104  00000+0 -31452-3 0  9990
2 55820  87.9092 344.8319 0001603  92.2604 267.8710 13.14504839123018
ONEWEB-0661             
1 55821U 23029AB  25256.24504852  .00000212  00000+0  53621-3 0  9991
2 55821  87.9089 344.8966 0001697  88.7588 271.3736 13.14503538123009
ONEWEB-0662             
1 55822U 23029AC  25256.20380830 -.00000078  00000+0 -24385-3 0  9993
2 55822  87.9084 344.9108 0001525  93.7385 266.3920 13.14504127123043
ONEWEB-0663             
1 55823U 23029AD  25256.21364701  .00000082  00000+0  17035-3 0  9991
2 55823  87.9298 329.6994 0001487  94.1772 265.9532 13.20846437124580
ONEWEB-0664             
1 55824U 23029AE  25255.92161025  .00000080  00000+0  16539-3 0  9999
2 55824  87.9279 329.7772 0002039  87.7828 272.3539 13.20770818124543
ONEWEB-0665             
1 55825U 23029AF  25256.01351410  .00000237  00000+0  60474-3 0  9991
2 55825  87.9095 344.9179 0001592  96.0272 264.1039 13.14503658122999
ONEWEB-0666             
1 55826U 23029AG  25255.91529904  .00000091  00000+0  19208-3 0  9992
2 55826  87.9277 329.7663 0002545 110.6148 249.5258 13.20771279124552
ONEWEB-0667             
1 55827U 23029AH  25255.90898102  .00000004  00000+0 -21584-4 0  9997
2 55827  87.9279 329.6952 0001753  93.9296 266.2038 13.20771273124547
ONEWEB-0669             
1 55828U 23029AJ  25256.20726789  .00000012  00000+0 -25610-5 0  9997
2 55828  87.9282 329.6757 0002553  90.8728 269.2698 13.20769794124584
ONEWEB-0670             
1 55829U 23029AK  25256.21967428  .00000115  00000+0  27657-3 0  9990
2 55829  87.9090 344.8971 0001792  87.6940 272.4395 13.14503409123045
ONEWEB-0671             
1 55830U 23029AL  25256.25638880  .00000180  00000+0  41718-3 0  9999
2 55830  87.9286   0.0503 0001666  97.7542 262.3780 13.19724770122378
ONEWEB-0672             
1 55831U 23029AM  25256.20252966  .00000032  00000+0  47474-4 0  9994
2 55831  87.9278 329.6597 0002199 101.7520 258.3860 13.20773489124589
ONEWEB-0673             
1 55832U 23029AN  25256.00524518  .00000060  00000+0  11846-3 0  9992
2 55832  87.9292   0.0673 0001651 103.1025 257.0292 13.19725223122347
ONEWEB-0674             
1 55833U 23029AP  25256.26406175 -.00000290  00000+0 -81757-3 0  9994
2 55833  87.9091 344.8712 0001897  85.0098 275.1249 13.14503418123033
