[{"OBJECT_NAME":"ONEWEB-0657","OBJECT_ID":"2023-029Y","EPOCH":"2025-09-13T06:22:51.332160","MEAN_MOTION":13.19726611,"ECCENTRICITY":0.00024445,"INCLINATION":87.9282,"RA_OF_ASC_NODE":0.0566,"ARG_OF_PERICENTER":113.9354,"MEAN_ANOMALY":246.2035,"EPHEMERIS_TYPE":0,"CLASSIFICATION_TYPE":"U","NORAD_CAT_ID":55818,"ELEMENT_SET_NO":999,"REV_AT_EPOCH":12238,"BSTAR":-0.00015006499,"MEAN_MOTION_DOT":-4.7e-7,"MEAN_MOTION_DDOT":0},{"OBJECT_NAME":"ONEWEB-0658","OBJECT_ID":"2023-029Z","EPOCH":"2025-09-13T00:48:30.359808","MEAN_MOTION":13.19725877,"ECCENTRICITY":0.00013789,"INCLINATION":87.9293,"RA_OF_ASC_NODE":0.0404,"ARG_OF_PERICENTER":109.2965,"MEAN_ANOMALY":250.8317,"EPHEMERIS_TYPE":0,"CLASSIFICATION_TYPE":"U","NORAD_CAT_ID":55819,"ELEMENT_SET_NO":999,"REV_AT_EPOCH":12236,"BSTAR":0.0001404836,"MEAN_MOTION_DOT":6.9e-7,"MEAN_MOTION_DDOT":0},{"OBJECT_NAME":"ONEWEB-0660","OBJECT_ID":"2023-029AA","EPOCH":"2025-09-13T05:02:36.588480","MEAN_MOTION":13.14504839,"ECCENTRICITY":0.00016032,"INCLINATION":87.9092,"RA_OF_ASC_NODE":344.8319,"ARG_OF_PERICENTER":92.2604,"MEAN_ANOMALY":267.871,"EPHEMERIS_TYPE":0,"CLASSIFICATION_TYPE":"U","NORAD_CAT_ID":55820,"ELEMENT_SET_NO":999,"REV_AT_EPOCH":12301,"BSTAR":-0.00031451853,"MEAN_MOTION_DOT":-1.04e-6,"MEAN_MOTION_DDOT":0},{"OBJECT_NAME":"ONEWEB-0661","OBJECT_ID":"2023-029AB","EPOCH":"2025-09-13T05:52:52.192128","MEAN_MOTION":13.14503538,"ECCENTRICITY":0.00016974,"INCLINATION":87.9089,"RA_OF_ASC_NODE":344.8966,"ARG_OF_PERICENTER":88.7588,"MEAN_ANOMALY":271.3736,"EPHEMERIS_TYPE":0,"CLASSIFICATION_TYPE":"U","NORAD_CAT_ID":55821,"ELEMENT_SET_NO":999,"REV_AT_EPOCH":12300,"BSTAR":0.00053621287,"MEAN_MOTION_DOT":2.12e-6,"MEAN_MOTION_DDOT":0},{"OBJECT_NAME":"ONEWEB-0662","OBJECT_ID":"2023-029AC","EPOCH":"2025-09-13T04:53:29.037120","MEAN_MOTION":13.14504127,"ECCENTRICITY":0.00015254,"INCLINATION":87.9084,"RA_OF_ASC_NODE":344.9108,"ARG_OF_PERICENTER":93.7385,"MEAN_ANOMALY":266.392,"EPHEMERIS_TYPE":0,"CLASSIFICATION_TYPE":"U","NORAD_CAT_ID":55822,"ELEMENT_SET_NO":999,"REV_AT_EPOCH":12304,"BSTAR":-0.00024384981,"MEAN_MOTION_DOT":-7.8e-7,"MEAN_MOTION_DDOT":0},{"OBJECT_NAME":"ONEWEB-0663","OBJECT_ID":"2023-029AD","EPOCH":"2025-09-13T05:07:39.101664","MEAN_MOTION":13.20846437,"ECCENTRICITY":0.00014874,"INCLINATION":87.9298,"RA_OF_ASC_NODE":329.6994,"ARG_OF_PERICENTER":94.1772,"MEAN_ANOMALY":265.9532,"EPHEMERIS_TYPE":0,"CLASSIFICATION_TYPE":"U","NORAD_CAT_ID":55823,"ELEMENT_SET_NO":999,"REV_AT_EPOCH":12458,"BSTAR":0.00017034961,"MEAN_MOTION_DOT":8.2e-7,"MEAN_MOTION_DDOT":0},{"OBJECT_NAME":"ONEWEB-0664","OBJECT_ID":"2023-029AE","EPOCH":"2025-09-12T22:07:07.125600","MEAN_MOTION":13.20770818,"ECCENTRICITY":0.00020399,"INCLINATION":87.9279,"RA_OF_ASC_NODE":329.7772,"ARG_OF_PERICENTER":87.7828,"MEAN_ANOMALY":272.3539,"EPHEMERIS_TYPE":0,"CLASSIFICATION_TYPE":"U","NORAD_CAT_ID":55824,"ELEMENT_SET_NO":999,"REV_AT_EPOCH":12454,"BSTAR":0.00016539005,"MEAN_MOTION_DOT":8.0e-7,"MEAN_MOTION_DDOT":0},{"OBJECT_NAME":"ONEWEB-0665","OBJECT_ID":"2023-029AF","EPOCH":"2025-09-13T00:19:27.618240","MEAN_MOTION":13.14503658,"ECCENTRICITY":0.00015926,"INCLINATION":87.9095,"RA_OF_ASC_NODE":344.9179,"ARG_OF_PERICENTER":96.0272,"MEAN_ANOMALY":264.1039,"EPHEMERIS_TYPE":0,"CLASSIFICATION_TYPE":"U","NORAD_CAT_ID":55825,"ELEMENT_SET_NO":999,"REV_AT_EPOCH":12299,"BSTAR":0.00060474169,"MEAN_MOTION_DOT":2.37e-6,"MEAN_MOTION_DDOT":0},{"OBJECT_NAME":"ONEWEB-0666","OBJECT_ID":"2023-029AG","EPOCH":"2025-09-12T21:58:01.837056","MEAN_MOTION":13.20771279,"ECCENTRICITY":0.00025452,"INCLINATION":87.9277,"RA_OF_ASC_NODE":329.7663,"ARG_OF_PERICENTER":110.6148,"MEAN_ANOMALY":249.5258,"EPHEMERIS_TYPE":0,"CLASSIFICATION_TYPE":"U","NORAD_CAT_ID":55826,"ELEMENT_SET_NO":999,"REV_AT_EPOCH":12455,"BSTAR":0.00019207998,"MEAN_MOTION_DOT":9.1e-7,"MEAN_MOTION_DDOT":0},{"OBJECT_NAME":"ONEWEB-0667","OBJECT_ID":"2023-029AH","EPOCH":"2025-09-12T21:48:55.960128","MEAN_MOTION":13.20771273,"ECCENTRICITY":0.00017533,"INCLINATION":87.9279,"RA_OF_ASC_NODE":329.6952,"ARG_OF_PERICENTER":93.9296,"MEAN_ANOMALY":266.2038,"EPHEMERIS_TYPE":0,"CLASSIFICATION_TYPE":"U","NORAD_CAT_ID":55827,"ELEMENT_SET_NO":999,"REV_AT_EPOCH":12454,"BSTAR":-2.1584442e-5,"MEAN_MOTION_DOT":4.0e-8,"MEAN_MOTION_DDOT":0},{"OBJECT_NAME":"ONEWEB-0669","OBJECT_ID":"2023-029AJ","EPOCH":"2025-09-13T04:58:27.945696","MEAN_MOTION":13.20769794,"ECCENTRICITY":0.00025534,"INCLINATION":87.9282,"RA_OF_ASC_NODE":329.6757,"ARG_OF_PERICENTER":90.8728,"MEAN_ANOMALY":269.2698,"EPHEMERIS_TYPE":0,"CLASSIFICATION_TYPE":"U","NORAD_CAT_ID":55828,"ELEMENT_SET_NO":999,"REV_AT_EPOCH":12458,"BSTAR":-2.561009e-6,"MEAN_MOTION_DOT":1.2e-7,"MEAN_MOTION_DDOT":0},{"OBJECT_NAME":"ONEWEB-0670","OBJECT_ID":"2023-029AK","EPOCH":"2025-09-13T05:16:19.857792","MEAN_MOTION":13.14503409,"ECCENTRICITY":0.00017925,"INCLINATION":87.909,"RA_OF_ASC_NODE":344.8971,"ARG_OF_PERICENTER":87.694,"MEAN_ANOMALY":272.4395,"EPHEMERIS_TYPE":0,"CLASSIFICATION_TYPE":"U","NORAD_CAT_ID":55829,"ELEMENT_SET_NO":999,"REV_AT_EPOCH":12304,"BSTAR":0.00027657105,"MEAN_MOTION_DOT":1.15e-6,"MEAN_MOTION_DDOT":0},{"OBJECT_NAME":"ONEWEB-0671","OBJECT_ID":"2023-029AL","EPOCH":"2025-09-13T06:09:11.992320","MEAN_MOTION":13.1972477,"ECCENTRICITY":0.00016666,"INCLINATION":87.9286,"RA_OF_ASC_NODE":0.0503,"ARG_OF_PERICENTER":97.7542,"MEAN_ANOMALY":262.378,"EPHEMERIS_TYPE":0,"CLASSIFICATION_TYPE":"U","NORAD_CAT_ID":55830,"ELEMENT_SET_NO":999,"REV_AT_EPOCH":12237,"BSTAR":0.00041718176,"MEAN_MOTION_DOT":1.8e-6,"MEAN_MOTION_DDOT":0},{"OBJECT_NAME":"ONEWEB-0672","OBJECT_ID":"2023-029AM","EPOCH":"2025-09-13T04:51:38.562624","MEAN_MOTION":13.20773489,"ECCENTRICITY":0.00021997,"INCLINATION":87.9278,"RA_OF_ASC_NODE":329.6597,"ARG_OF_PERICENTER":101.752,"MEAN_ANOMALY":258.386,"EPHEMERIS_TYPE":0,"CLASSIFICATION_TYPE":"U","NORAD_CAT_ID":55831,"ELEMENT_SET_NO":999,"REV_AT_EPOCH":12458,"BSTAR":4.7473616e-5,"MEAN_MOTION_DOT":3.2e-7,"MEAN_MOTION_DDOT":0},{"OBJECT_NAME":"ONEWEB-0673","OBJECT_ID":"2023-029AN","EPOCH":"2025-09-13T00:07:33.183552","MEAN_MOTION":13.19725223,"ECCENTRICITY":0.00016511,"INCLINATION":87.9292,"RA_OF_ASC_NODE":0.0673,"ARG_OF_PERICENTER":103.1025,"MEAN_ANOMALY":257.0292,"EPHEMERIS_TYPE":0,"CLASSIFICATION_TYPE":"U","NORAD_CAT_ID":55832,"ELEMENT_SET_NO":999,"REV_AT_EPOCH":12234,"BSTAR":0.00011845873,"MEAN_MOTION_DOT":6.0e-7,"MEAN_MOTION_DDOT":0},{"OBJECT_NAME":"ONEWEB-0674","OBJECT_ID":"2023-029AP","EPOCH":"2025-09-13T06:20:14.935200","MEAN_MOTION":13.14503418,"ECCENTRICITY":0.00018973,"INCLINATION":87.9091,"RA_OF_ASC_NODE":344.8712,"ARG_OF_PERICENTER":85.0098,"MEAN_ANOMALY":275.1249,"EPHEMERIS_TYPE":0,"CLASSIFICATION_TYPE":"U","NORAD_CAT_ID":55833,"ELEMENT_SET_NO":999,"REV_AT_EPOCH":12303,"BSTAR":-0.00081757162,"MEAN_MOTION_DOT":-2.9e-6,"MEAN_MOTION_DDOT":0}]
